#cP2016  1  4  0  0  0.00000000     288   u+U UNDEF FIT  GFZ                    
## 1878  86400.00000000   300.00000000 57391 0.0000000000000                    
+   76   C01C02C03C04C05C06C07C08C09C10C11C12C14E11E12E14E19                    
+        E22E24E26E30G01G02G03G05G06G07G08G09G11G12G13G14G15                    
+        G16G17G18G19G20G21G22G23G24G25G26G27G28G29G30G31G32                    
+        J01R01R02R03R04R05R06R07R08R09R10R11R12R13R14R15R16                    
+        R18R19R20R21R22R23R24R26 00 00 00 00 00 00 00 00 00                    
++        10 10 10 10  0 10 10 10 10  8  5  8  8  8  7  6 10                    
++         7  8  5 10  5  5  8  6  5  5  5  5  6  5  7  6  7                    
++         9  6  5  7  8  6  7  8  6  8  6  5  6  6  8  5  5                    
++        10  8  8  6  7  6  8  7  8 10  7 10 10  8  9  9  9                    
++         6  8 10  6  9  9 10 10  0  0  0  0  0  0  0  0  0                    
%c M  cc GPS ccc cccc cccc cccc cccc ccccc ccccc ccccc ccccc                    
%c cc cc ccc ccc cccc cccc cccc cccc ccccc ccccc ccccc ccccc                    
%f  1.2500000  1.025000000  0.00000000000  0.000000000000000                    
%f  0.0000000  0.000000000  0.00000000000  0.000000000000000                    
%i    0    0    0    0      0      0      0      0         0                    
%i    0    0    0    0      0      0      0      0         0                    
/* PCV:IGS08_1869 OL/AL:FES2004  NONE     YN CLK:CoN ORB:CoN                    
/*     GeoForschungsZentrum Potsdam                                             
/*                                                                              
/*                                                                              
*  2016  1  4  9 40  0.00000000                                                 
PC01 -32299.442180  27124.648281    410.634859   -406.883440                    
PC02   7278.419168  41523.663569   -423.805439    -53.942488                    
PC03 -14822.359460  39454.974161   -518.447503   -384.025789                    
PC04 -39653.758267  14427.642525     39.402904   -299.961321                    
PC05  21865.823843  36030.745985  -1038.459355     18.422884                    
PC06 -23218.568525  34445.642729   6421.484154    -58.355373                    
PC07  -7855.369153  32509.677614  25923.272606    205.691180                    
PC08 -17267.507417  18851.485382 -33533.809743    -88.769250                    
PC09 -11986.467451  34678.132269  20605.121268    803.814235                    
PC10   4449.387410  39593.410802  14249.355809    307.294769                    
PC11  -7422.876923  14768.789163 -22461.051136    314.579377                    
PC12 -24696.040022   6429.917057 -11401.301558    359.983829                    
PC14 -11042.161208  24889.807396   5962.702512    528.694388                    
PE11 -12200.314588  13073.620522 -23584.829407     12.831690                    
PE12 -26212.330321   1280.575128 -13679.235709   -229.431043                    
PE14 -13183.919374  16666.138631 -19069.453457   3177.469945                    
PE19 -16113.634700  -7817.498310 -23572.277595     -9.963238                    
PE22  26943.284827  11696.984449  -3588.862512    257.819404                    
PE24  -6827.232159  22695.912700  17719.777434   1441.376222                    
PE26 -11416.666302 -18533.233250  20070.194346   2759.787409                    
PE30  15651.796405  -3164.058976 -24922.099512   1414.858089                    
PG01  19863.972152   9269.117025  15070.977543      8.290050                    
PG02 -13286.305572 -22720.069055   5396.635821    598.817566                    
PG03  16059.339781    220.252441  21155.371457     -6.967779                    
PG05  -5835.901877 -18996.142026 -17598.257322   -158.616036                    
PG06  -2182.918694 -21214.791913  15839.291197    123.488009                    
PG07  13856.988428  -6247.152024 -21677.865020    475.027470                    
PG08  21836.404262   6745.051202 -13479.817572    -18.753469                    
PG09  23904.252236  -8567.586265  -7818.811237     42.795052                    
PG11  23936.843805   9488.750653   6087.795540   -625.396892                    
PG12 -14114.486958  -4019.042697  22013.486533    358.429859                    
PG13 -14226.061359 -12615.172292 -18642.747859   -176.080893                    
PG14 -11329.109798  14103.821507  19646.501128     11.307357                    
PG15 -24064.508276  -4074.977088 -11004.162939   -290.559102                    
PG16   3482.803589  19106.162778 -18017.948285    -51.347334                    
PG17  11780.510256 -14081.907472  19437.366852   -198.117468                    
PG18 -15685.277596  18237.221936 -10439.781071    469.544239                    
PG19  15724.455382 -12331.598035  17505.407115   -524.227657                    
PG20 -15874.425149  -2957.596386 -21252.304280    383.263036                    
PG21 -11279.100447  10551.741642 -20874.338535   -503.340068                    
PG22  -4201.797179  25230.503370   7122.625662    414.974227                    
PG23  26517.627903   -239.926087   4019.632896   -153.202636                    
PG24 -20418.430059 -11456.022517  12672.737083    -10.235436                    
PG25 -17102.957246  10540.559584  17175.971340    -93.836027                    
PG26  -3192.691230  24596.913584  -9454.225408   -195.962374                    
PG27  12769.050367  12178.391615 -19916.110438     50.332003                    
PG28  12059.070921 -23621.938306    261.776742    492.972259                    
PG29 -25483.053936   5204.188888  -5264.354113    650.621384                    
PG30   6148.933379 -16480.676619 -19879.416486     79.944232                    
PG31   2869.600250  21743.111600  14838.985010    288.474966                    
PG32   9962.353550  13234.608365  20781.239991     69.584142                    
PJ01 -21349.960255  31161.437752 -14085.502678   -107.055261                    
PR01  19152.545029 -11888.464406  11915.174989   -147.089888                    
PR02  14874.193848 -19800.909421  -6160.649662    169.837438                    
PR03   1707.732654 -15635.095660 -20061.968831     59.112594                    
PR04 -12635.962693  -2011.783244 -22058.093409    151.873588                    
PR05 -19211.927340  12386.896772 -11343.282086      2.887406                    
PR06 -14201.158159  19993.825345   6944.617103     81.318539                    
PR07  -1451.324815  15475.107880  20242.716860     -5.102686                    
PR08  12322.932317   2484.043617  22235.948150    -27.022356                    
PR09  -2019.979470  19813.334298  15855.247054     23.397968                    
PR10   6974.842046  24575.860850   -223.768900      4.474314                    
PR11  12278.344599  14999.008438 -16528.056417     21.326199                    
PR12  10286.449516  -3368.873816 -23117.462959     31.366397                    
PR13   1657.477532 -20042.643534 -15703.032288     11.818467                    
PR14  -7514.757836 -24292.164235   1477.310184    264.354959                    
PR15 -11934.339971 -16236.593525  15720.565483 999999.999999                    
PR16  -9866.439609   4694.957977  23024.884925     27.378066                    
PR18 -22813.067715  -9076.946642   6814.775798     83.272883                    
PR19 -22571.721530   -442.141878 -11876.507291   -144.839929                    
PR20  -8359.442562   8476.524236 -22544.303843   -212.827215                    
PR21   9587.546955  12187.130310 -20240.622855     45.309944                    
PR22  23111.987012   8922.244604  -6346.256775    187.212350                    
PR23  22483.786664    -28.766629  12039.422011    -66.539677                    
PR24   9570.214633  -8145.252648  22177.467951   -132.473101                    
PR26  -7195.227734   9028.738092 -22735.601343 999999.999999                    
EOF                                     
